42959,IRIDIUM 119,2017,100.4,860.0,+,86.4,Active,1,LEO,USA,USA,Commercial/Government,Communications,Falcon,1 42959U 17061E   24162.51067387  .00000041  00000+0  76759-5 0  9999,2 42959  86.3960 333.1076 0001863  92.9508 267.1901 14.34215626349227,14.34215626,0.0001863,LEO
42960,IRIDIUM 107,2017,100.4,860.0,+,86.4,Active,1,LEO,USA,USA,Commercial/Government,Communications,Falcon,1 42960U 17061F   24162.52969523  .00000157  00000+0  49010-4 0  9992,2 42960  86.3962 333.1164 0001984  96.3288 263.8134 14.34217050349231,14.3421705,0.0001984,LEO
42961,IRIDIUM 132,2017,100.4,860.0,+,86.4,Active,1,LEO,USA,USA,Commercial/Government,Communications,Falcon,1 42961U 17061G   24162.53605074  .00000502  00000+0  17225-3 0  9998,2 42961  86.3960 333.0985 0002092  99.8883 260.2549 14.34220708349235,14.34220708,0.0002092,LEO
42962,IRIDIUM 136,2017,100.4,860.0,+,86.4,Active,1,LEO,USA,USA,Commercial/Government,Communications,Falcon,1 42962U 17061H   24162.49799129  .00000048  00000+0  99421-5 0  9994,2 42962  86.3963 333.1177 0001836  86.1726 273.9679 14.34216658349248,14.34216658,0.0001836,LEO
42963,IRIDIUM 139,2017,100.4,860.0,+,86.41,Active,1,LEO,USA,USA,Commercial/Government,Communications,Falcon,1 42963U 17061J   24162.50433085  .00000029  00000+0  32257-5 0  9996,2 42963  86.3964 333.1650 0001966 100.8109 259.3308 14.34215214349254,14.34215214,0.0001966,LEO
42964,IRIDIUM 125,2017,100.4,860.0,+,86.4,Active,1,LEO,USA,USA,Commercial/Government,Communications,Falcon,1 42964U 17061K   24162.56141162  .00000141  00000+0  43154-4 0  9997,2 42964  86.3966 333.1887 0001681  94.5616 265.5772 14.34216309349277,14.34216309,0.0001681,LEO
43070,IRIDIUM 135,2017,100.4,860.0,+,86.4,Active,1,LEO,USA,USA,Commercial/Government,Communications,Falcon,1 43070U 17083A   24162.53554042  .00000528  00000+0  18164-3 0  9993,2 43070  86.3960 269.8473 0002571  95.0941 265.0548 14.34215093338567,14.34215093,0.0002571,LEO
43071,IRIDIUM 138,2017,100.4,860.0,+,86.39,Active,1,LEO,USA,USA,Commercial/Government,Communications,Falcon,1 43071U 17083B   24162.56091433  .00000109  00000+0  31786-4 0  9998,2 43071  86.3951 269.5550 0001890  92.6537 267.4875 14.34216598338557,14.34216598,0.000189,LEO
